[
  {
    "OBJECT_NAME": "JILIN GAOFEN OBJECT A",
    "OBJECT_ID": "2026-080A",
    "EPOCH": "2026-04-16T22:21:19.602432",
    "MEAN_MOTION": 15.08304498,
    "ECCENTRICITY": 0.00109784,
    "INCLINATION": 97.6641,
    "RA_OF_ASC_NODE": 182.5718,
    "ARG_OF_PERICENTER": 272.3718,
    "MEAN_ANOMALY": 87.6253,
    "EPHEMERIS_TYPE": 0,
    "CLASSIFICATION_TYPE": "U",
    "NORAD_CAT_ID": 68691,
    "ELEMENT_SET_NO": 999,
    "REV_AT_EPOCH": 42,
    "BSTAR": 2.0548543e-05,
    "MEAN_MOTION_DOT": 2.55e-06,
    "MEAN_MOTION_DDOT": 0
  },
  {
    "OBJECT_NAME": "JILIN GAOFEN OBJECT B",
    "OBJECT_ID": "2026-080B",
    "EPOCH": "2026-04-16T22:20:16.196064",
    "MEAN_MOTION": 15.09268839,
    "ECCENTRICITY": 0.00140201,
    "INCLINATION": 97.662,
    "RA_OF_ASC_NODE": 182.5721,
    "ARG_OF_PERICENTER": 270.2297,
    "MEAN_ANOMALY": 89.7325,
    "EPHEMERIS_TYPE": 0,
    "CLASSIFICATION_TYPE": "U",
    "NORAD_CAT_ID": 68692,
    "ELEMENT_SET_NO": 999,
    "REV_AT_EPOCH": 42,
    "BSTAR": 0.00014838883,
    "MEAN_MOTION_DOT": 2.302e-05,
    "MEAN_MOTION_DDOT": 0
  },
  {
    "OBJECT_NAME": "JILIN GAOFEN OBJECT C",
    "OBJECT_ID": "2026-080C",
    "EPOCH": "2026-04-15T01:47:03.383808",
    "MEAN_MOTION": 15.09294853,
    "ECCENTRICITY": 0.00134982,
    "INCLINATION": 97.6624,
    "RA_OF_ASC_NODE": 180.7182,
    "ARG_OF_PERICENTER": 278.6118,
    "MEAN_ANOMALY": 81.3581,
    "EPHEMERIS_TYPE": 0,
    "CLASSIFICATION_TYPE": "U",
    "NORAD_CAT_ID": 68693,
    "ELEMENT_SET_NO": 999,
    "REV_AT_EPOCH": 14,
    "BSTAR": 3.5821362e-05,
    "MEAN_MOTION_DOT": 5.06e-06,
    "MEAN_MOTION_DDOT": 0
  },
  {
    "OBJECT_NAME": "JILIN GAOFEN OBJECT D",
    "OBJECT_ID": "2026-080D",
    "EPOCH": "2026-04-15T01:47:00.364128",
    "MEAN_MOTION": 15.09349528,
    "ECCENTRICITY": 0.00142443,
    "INCLINATION": 97.6682,
    "RA_OF_ASC_NODE": 180.7187,
    "ARG_OF_PERICENTER": 278.7346,
    "MEAN_ANOMALY": 81.2269,
    "EPHEMERIS_TYPE": 0,
    "CLASSIFICATION_TYPE": "U",
    "NORAD_CAT_ID": 68694,
    "ELEMENT_SET_NO": 999,
    "REV_AT_EPOCH": 12,
    "BSTAR": 6.7430326e-05,
    "MEAN_MOTION_DOT": 1.013e-05,
    "MEAN_MOTION_DDOT": 0
  },
  {
    "OBJECT_NAME": "JILIN GAOFEN OBJECT E",
    "OBJECT_ID": "2026-080E",
    "EPOCH": "2026-04-15T01:46:59.638368",
    "MEAN_MOTION": 15.09361236,
    "ECCENTRICITY": 0.00145553,
    "INCLINATION": 97.6661,
    "RA_OF_ASC_NODE": 180.7168,
    "ARG_OF_PERICENTER": 278.1507,
    "MEAN_ANOMALY": 81.807,
    "EPHEMERIS_TYPE": 0,
    "CLASSIFICATION_TYPE": "U",
    "NORAD_CAT_ID": 68695,
    "ELEMENT_SET_NO": 999,
    "REV_AT_EPOCH": 10,
    "BSTAR": 6.7409547e-05,
    "MEAN_MOTION_DOT": 1.013e-05,
    "MEAN_MOTION_DDOT": 0
  },
  {
    "OBJECT_NAME": "JILIN GAOFEN OBJECT F",
    "OBJECT_ID": "2026-080F",
    "EPOCH": "2026-04-15T01:46:57.241632",
    "MEAN_MOTION": 15.09416186,
    "ECCENTRICITY": 0.00136046,
    "INCLINATION": 97.6631,
    "RA_OF_ASC_NODE": 180.7184,
    "ARG_OF_PERICENTER": 281.113,
    "MEAN_ANOMALY": 78.8569,
    "EPHEMERIS_TYPE": 0,
    "CLASSIFICATION_TYPE": "U",
    "NORAD_CAT_ID": 68696,
    "ELEMENT_SET_NO": 999,
    "REV_AT_EPOCH": 10,
    "BSTAR": 6.7431773e-05,
    "MEAN_MOTION_DOT": 1.014e-05,
    "MEAN_MOTION_DDOT": 0
  },
  {
    "OBJECT_NAME": "JILIN GAOFEN OBJECT G",
    "OBJECT_ID": "2026-080G",
    "EPOCH": "2026-04-15T01:46:52.419648",
    "MEAN_MOTION": 15.09509936,
    "ECCENTRICITY": 0.0014131,
    "INCLINATION": 97.6672,
    "RA_OF_ASC_NODE": 180.7171,
    "ARG_OF_PERICENTER": 282.1232,
    "MEAN_ANOMALY": 77.8414,
    "EPHEMERIS_TYPE": 0,
    "CLASSIFICATION_TYPE": "U",
    "NORAD_CAT_ID": 68697,
    "ELEMENT_SET_NO": 999,
    "REV_AT_EPOCH": 10,
    "BSTAR": 0.00016346539,
    "MEAN_MOTION_DOT": 2.56e-05,
    "MEAN_MOTION_DDOT": 0
  },
  {
    "OBJECT_NAME": "JILIN GAOFEN OBJECT H",
    "OBJECT_ID": "2026-080H",
    "EPOCH": "2026-04-15T01:46:50.341728",
    "MEAN_MOTION": 15.09549566,
    "ECCENTRICITY": 0.00139304,
    "INCLINATION": 97.6665,
    "RA_OF_ASC_NODE": 180.7184,
    "ARG_OF_PERICENTER": 282.9895,
    "MEAN_ANOMALY": 76.9778,
    "EPHEMERIS_TYPE": 0,
    "CLASSIFICATION_TYPE": "U",
    "NORAD_CAT_ID": 68698,
    "ELEMENT_SET_NO": 999,
    "REV_AT_EPOCH": 10,
    "BSTAR": 6.7135772e-05,
    "MEAN_MOTION_DOT": 1.014e-05,
    "MEAN_MOTION_DDOT": 0
  },
  {
    "OBJECT_NAME": "2026-083D",
    "OBJECT_ID": "2026-083D",
    "EPOCH": "2026-04-17T02:16:33.803616",
    "MEAN_MOTION": 15.06598489,
    "ECCENTRICITY": 0.00105872,
    "INCLINATION": 96.9492,
    "RA_OF_ASC_NODE": 252.3415,
    "ARG_OF_PERICENTER": 265.4967,
    "MEAN_ANOMALY": 94.5052,
    "EPHEMERIS_TYPE": 0,
    "CLASSIFICATION_TYPE": "U",
    "NORAD_CAT_ID": 68756,
    "ELEMENT_SET_NO": 999,
    "REV_AT_EPOCH": 1,
    "BSTAR": 3.8927023e-05,
    "MEAN_MOTION_DOT": 5.24e-06,
    "MEAN_MOTION_DDOT": 0
  },
  {
    "OBJECT_NAME": "2026-083E",
    "OBJECT_ID": "2026-083E",
    "EPOCH": "2026-04-17T03:50:04.293888",
    "MEAN_MOTION": 15.23009713,
    "ECCENTRICITY": 0.00617028,
    "INCLINATION": 98.2473,
    "RA_OF_ASC_NODE": 252.4151,
    "ARG_OF_PERICENTER": 80.1499,
    "MEAN_ANOMALY": 280.6695,
    "EPHEMERIS_TYPE": 0,
    "CLASSIFICATION_TYPE": "U",
    "NORAD_CAT_ID": 68757,
    "ELEMENT_SET_NO": 999,
    "REV_AT_EPOCH": 3,
    "BSTAR": 6.3260824e-05,
    "MEAN_MOTION_DOT": 1.477e-05,
    "MEAN_MOTION_DDOT": 0
  }
]